[{"OBJECT_NAME":"STARLINK-1680","OBJECT_ID":"2020-070AC","EPOCH":"2026-03-10T00:00:02.999808","MEAN_MOTION":15.76401356,"ECCENTRICITY":0.00075058,"INCLINATION":53.0447,"RA_OF_ASC_NODE":107.962,"ARG_OF_PERICENTER":15.0582,"MEAN_ANOMALY":219.3714,"EPHEMERIS_TYPE":0,"CLASSIFICATION_TYPE":"U","NORAD_CAT_ID":46558,"ELEMENT_SET_NO":999,"REV_AT_EPOCH":596,"BSTAR":0.0012210481,"MEAN_MOTION_DOT":0.00201352,"MEAN_MOTION_DDOT":0},{"OBJECT_NAME":"STARLINK-36316","OBJECT_ID":"2026-025N","EPOCH":"2026-03-09T19:58:09.287616","MEAN_MOTION":15.75192684,"ECCENTRICITY":0.00014335,"INCLINATION":97.2832,"RA_OF_ASC_NODE":180.4346,"ARG_OF_PERICENTER":76.7663,"MEAN_ANOMALY":283.3762,"EPHEMERIS_TYPE":0,"CLASSIFICATION_TYPE":"U","NORAD_CAT_ID":67705,"ELEMENT_SET_NO":999,"REV_AT_EPOCH":596,"BSTAR":0.0022957379,"MEAN_MOTION_DOT":0.00357054,"MEAN_MOTION_DDOT":0}]
